NORAD_CAT_ID,OBJECT_NAME,OBJECT_TYPE,EPOCH,MEAN_MOTION,ECCENTRICITY,INCLINATION,RA_OF_ASC_NODE,ARG_OF_PERICENTER,MEAN_ANOMALY,BSTAR,MEAN_MOTION_DOT,MEAN_MOTION_DDOT,TLE_LINE0,TLE_LINE1,TLE_LINE2,SEMIMAJOR_AXIS,PERIOD,APOGEE,PERIGEE,DECAYED
51862.0,STARLINK-3508,PAYLOAD,2022-08-31 22:00:00,15.0883133,0.0001653,53.2198,21.1737,65.1616,174.9193,0.00070258,0.00010909,0.0,0 STARLINK-3508,1 51862U 22022L   22243.91667824  .00010909  00000-0  70258-3 0  9990,2 51862  53.2198  21.1737 0001653  65.1616 174.9193 15.08831330  1303,6917.906999999997,95.438,540.915,538.628,0.0
51862.0,STARLINK-3508,PAYLOAD,2022-09-01 06:00:00,15.08816919,0.0001536,53.2199,19.6758,73.5741,178.1047,0.0030456999999999,0.00048487,0.0,0 STARLINK-3508,1 51862U 22022L   22244.25001157  .00048487  00000-0  30457-2 0  9997,2 51862  53.2199  19.6758 0001536  73.5741 178.1047 15.08816919 29109,6917.951,95.439,540.879,538.753,0.0
51862.0,STARLINK-3508,PAYLOAD,2022-09-01 14:00:01,15.08859892,0.0001582,53.22,18.1809,69.6929,193.6357,-0.0016343,-0.00026218,0.0,0 STARLINK-3508,1 51862U 22022L   22244.58335648 -.00026218  00000-0 -16343-2 0  9996,2 51862  53.2200  18.1809 0001582  69.6929 193.6357 15.08859892  1303,6917.82,95.436,540.779,538.59,0.0
51862.0,STARLINK-3508,PAYLOAD,2022-09-01 22:00:00,15.08846515,0.0001514,53.2196,16.6849,64.2224,210.6473,-0.0020344,-0.00032525,0.0,0 STARLINK-3508,1 51862U 22022L   22244.91667824 -.00032525  00000-0 -20344-2 0  9991,2 51862  53.2196  16.6849 0001514  64.2224 210.6473 15.08846515  1305,6917.86,95.437,540.773,538.678,0.0
51862.0,STARLINK-3508,PAYLOAD,2022-09-02 14:00:01,15.08840385,0.0001458,53.2196,13.6924,68.6743,229.3651,-0.0012104,-0.000195,0.0,0 STARLINK-3508,1 51862U 22022L   22245.58334491 -.00019500  00000-0 -12104-2 0  9999,2 51862  53.2196  13.6924 0001458  68.6743 229.3651 15.08840385  1301,6917.879,95.438,540.753,538.736,0.0
51862.0,STARLINK-3508,PAYLOAD,2022-09-02 16:00:00,15.0883251,0.0001506999999999,53.2196,13.3187,66.7961,324.1421,-0.00028664,-4.846e-05,0.0,0 STARLINK-3508,1 51862U 22022L   22245.66667824 -.00004846  00000-0 -28664-3 0  9993,2 51862  53.2196  13.3187 0001507  66.7961 324.1421 15.08832510 29327,6917.903,95.438,540.811,538.726,0.0
51862.0,STARLINK-3508,PAYLOAD,2022-09-02 22:00:01,15.08843308,0.0001441999999999,53.2191,12.1962,64.5044,245.1808,-0.00069207,-0.00011286,0.0,0 STARLINK-3508,1 51862U 22022L   22245.91668981 -.00011286  00000-0 -69207-3 0  9990,2 51862  53.2191  12.1962 0001442  64.5044 245.1808 15.08843308  1302,6917.87,95.437,540.7330000000002,538.738,0.0
51862.0,STARLINK-3508,PAYLOAD,2022-09-03 14:00:01,15.08891123,0.0001463,53.2184,9.2031,68.5462,264.2712,-0.0087202999999999,-0.00136641,0.0,0 STARLINK-3508,1 51862U 22022L   22246.58334491 -.00136641  00000-0 -87203-2 0  9998,2 51862  53.2184   9.2031 0001463  68.5462 264.2712 15.08891123  1303,6917.724,95.434,540.601,538.577,0.0
51862.0,STARLINK-3508,PAYLOAD,2022-09-03 22:00:00,15.08850678,0.0001349,53.2186,7.7072,62.0035,282.4283,-0.0015,-0.00024088,0.0,0 STARLINK-3508,1 51862U 22022L   22246.91667824 -.00024088  00000-0 -15000-2 0  9991,2 51862  53.2186   7.7072 0001349  62.0035 282.4283 15.08850678 29508,6917.848000000001,95.437,540.646,538.78,0.0
51862.0,STARLINK-3508,PAYLOAD,2022-09-04 14:00:01,15.08862449,0.0001411,53.2182,4.7142,65.4148,302.2774,-0.0060714,-0.00095691,0.0,0 STARLINK-3508,1 51862U 22022L   22247.58335648 -.00095691  00000-0 -60714-2 0  9991,2 51862  53.2182   4.7142 0001411  65.4148 302.2774 15.08862449  1304,6917.812,95.436,540.653,538.701,0.0
51862.0,STARLINK-3508,PAYLOAD,2022-09-04 20:00:01,15.08831829,0.0001489,53.2185,3.5927,61.2734,225.0581,0.0025815,0.00041027,0.0,0 STARLINK-3508,1 51862U 22022L   22247.83334491  .00041027  00000-0  25815-2 0  9999,2 51862  53.2185   3.5927 0001489  61.2734 225.0581 15.08831829 29648,6917.905,95.438,540.8,538.74,0.0
51862.0,STARLINK-3508,PAYLOAD,2022-09-05 14:00:01,15.08860557,0.0001578,53.2187,0.2255,65.1592,337.2949,-0.0019463,-0.00031147,0.0,0 STARLINK-3508,1 51862U 22022L   22248.58334491 -.00031147  00000-0 -19463-2 0  9998,2 51862  53.2187   0.2255 0001578  65.1592 337.2949 15.08860557 29769,6917.818,95.436,540.774,538.591,0.0
51862.0,STARLINK-3508,PAYLOAD,2022-09-05 22:00:00,15.0886364,0.0001414,53.2188,358.7287,58.9612,355.0972,-0.006379,-0.00100461,0.0,0 STARLINK-3508,1 51862U 22022L   22248.91667824 -.00100461  00000-0 -63790-2 0  9992,2 51862  53.2188 358.7287 0001414  58.9612 355.0972 15.08863640  1308,6917.808000000001,95.436,540.651,538.695,0.0
51862.0,STARLINK-3508,PAYLOAD,2022-09-06 14:00:01,15.08806999,0.0001396999999999,53.2192,355.7366,57.9173,19.261,-0.00012257,-2.236e-05,0.0,0 STARLINK-3508,1 51862U 22022L   22249.58334491 -.00002236  00000-0 -12257-3 0  9991,2 51862  53.2192 355.7366 0001397  57.9173  19.2610 15.08806999  1301,6917.981,95.44,540.813,538.88,0.0
51862.0,STARLINK-3508,PAYLOAD,2022-09-06 22:00:00,15.0882871,0.0001349,53.2194,354.2398,55.6821,33.046,-0.0011114,-0.00017927,0.0,0 STARLINK-3508,1 51862U 22022L   22249.91667824 -.00017927  00000-0 -11114-2 0  9990,2 51862  53.2194 354.2398 0001349  55.6821  33.0460 15.08828710 29968,6917.915,95.438,540.7130000000002,538.847,0.0
51862.0,STARLINK-3508,PAYLOAD,2022-09-07 14:00:01,15.08834783,0.0001409,53.2199,351.2478,56.7023,55.1808,1.5201e-05,-4.6e-07,0.0,0 STARLINK-3508,1 51862U 22022L   22250.58334491 -.00000046  00000-0  15201-4 0  9992,2 51862  53.2199 351.2478 0001409  56.7023  55.1808 15.08834783 30063,6917.896,95.438,540.736,538.7869999999998,0.0
51862.0,STARLINK-3508,PAYLOAD,2022-09-07 22:00:00,15.08858395,0.0001365999999999,53.2199,349.751,55.5622,67.9051,-0.0013510999999999,-0.00021737,0.0,0 STARLINK-3508,1 51862U 22022L   22250.91667824 -.00021737  00000-0 -13511-2 0  9999,2 51862  53.2199 349.7510 0001366  55.5622  67.9051 15.08858395  1307,6917.824000000001,95.436,540.634,538.744,0.0
51862.0,STARLINK-3508,PAYLOAD,2022-09-08 14:00:01,15.08833216,0.0001501999999999,53.2202,346.7593,57.6524,89.0092,0.00037127,5.625e-05,0.0,0 STARLINK-3508,1 51862U 22022L   22251.58334491  .00005625  00000-0  37127-3 0  9990,2 51862  53.2202 346.7593 0001502  57.6524  89.0092 15.08833216  1301,6917.901,95.438,540.805,538.727,0.0
51862.0,STARLINK-3508,PAYLOAD,2022-09-08 22:00:00,15.08864958,0.000144,53.22,345.2623,58.3418,99.9098,-0.001489,-0.00023923,0.0,0 STARLINK-3508,1 51862U 22022L   22251.91667824 -.00023923  00000-0 -14890-2 0  9990,2 51862  53.2200 345.2623 0001440  58.3418  99.9098 15.08864958  1301,6917.804,95.436,540.665,538.673,0.0
51862.0,STARLINK-3508,PAYLOAD,2022-09-09 00:00:02,15.08859265,0.0001383,53.2202,344.8877,61.1017,190.1183,-0.0010444,-0.0001688,0.0,0 STARLINK-3508,1 51862U 22022L   22252.00002315 -.00016880  00000-0 -10444-2 0  9994,2 51862  53.2202 344.8877 0001383  61.1017 190.1183 15.08859265 30274,6917.821999999999,95.436,540.643,538.73,0.0
51862.0,STARLINK-3508,PAYLOAD,2022-09-09 14:00:01,15.08837503,0.0001563,53.2201,342.2708,58.8552,122.6211,0.00057269,8.837e-05,0.0,0 STARLINK-3508,1 51862U 22022L   22252.58334491  .00008837  00000-0  57269-3 0  9998,2 51862  53.2201 342.2708 0001563  58.8552 122.6211 15.08837503  1300,6917.888000000001,95.438,540.8340000000002,538.672,0.0
51862.0,STARLINK-3508,PAYLOAD,2022-09-09 22:00:00,15.0886117,0.0001411,53.2197,340.7736,59.1281,133.9427,-0.0037486999999999,-0.0005949,0.0,0 STARLINK-3508,1 51862U 22022L   22252.91667824 -.00059490  00000-0 -37487-2 0  9996,2 51862  53.2197 340.7736 0001411  59.1281 133.9427 15.08861170  1304,6917.816,95.436,540.6569999999998,538.705,0.0
51862.0,STARLINK-3508,PAYLOAD,2022-09-10 06:00:02,15.08832496,0.0001341999999999,53.2196,339.2763,66.28699999999999,138.4408,0.0014512,0.00022878,0.0,0 STARLINK-3508,1 51862U 22022L   22253.25002315  .00022878  00000-0  14512-2 0  9994,2 51862  53.2196 339.2763 0001342  66.2870 138.4408 15.08832496 30469,6917.903,95.438,540.697,538.84,0.0
51862.0,STARLINK-3508,PAYLOAD,2022-09-10 14:00:01,15.08842944,0.0001499,53.2195,337.7823,57.4067,158.8585,-0.00047893,-7.903e-05,0.0,0 STARLINK-3508,1 51862U 22022L   22253.58334491 -.00007903  00000-0 -47893-3 0  9996,2 51862  53.2195 337.7823 0001499  57.4067 158.8585 15.08842944  1303,6917.871,95.437,540.773,538.6990000000002,0.0
51862.0,STARLINK-3508,PAYLOAD,2022-09-10 22:00:00,15.0884071,0.0001455,53.2191,336.2846,60.2888,167.5742,-0.0018484,-0.00029585,0.0,0 STARLINK-3508,1 51862U 22022L   22253.91667824 -.00029585  00000-0 -18484-2 0  9995,2 51862  53.2191 336.2846 0001455  60.2888 167.5742 15.08840710 30564,6917.878000000002,95.438,540.75,538.737,0.0
51862.0,STARLINK-3508,PAYLOAD,2022-09-11 06:00:00,15.08838048,0.0001455,53.2188,334.7877,67.9847,171.4636,0.0011186,0.00017558,0.0,0 STARLINK-3508,1 51862U 22022L   22254.25001157  .00017558  00000-0  11186-2 0  9991,2 51862  53.2188 334.7877 0001455  67.9847 171.4636 15.08838048 30619,6917.886,95.438,540.758,538.745,0.0
51862.0,STARLINK-3508,PAYLOAD,2022-09-11 14:00:01,15.08845578,0.0001551999999999,53.2188,333.2937,57.9342,193.1202,-0.00031306,-5.268e-05,0.0,0 STARLINK-3508,1 51862U 22022L   22254.58334491 -.00005268  00000-0 -31306-3 0  9991,2 51862  53.2188 333.2937 0001552  57.9342 193.1202 15.08845578  1307,6917.863,95.437,540.802,538.655,0.0
51862.0,STARLINK-3508,PAYLOAD,2022-09-11 22:00:00,15.08842547,0.0001404,53.2185,331.7961,58.2109,204.4454,-0.0011472,-0.000185,0.0,0 STARLINK-3508,1 51862U 22022L   22254.91667824 -.00018500  00000-0 -11472-2 0  9991,2 51862  53.2185 331.7961 0001404  58.2109 204.4454 15.08842547 30710,6917.873000000001,95.437,540.7090000000002,538.766,0.0
51862.0,STARLINK-3508,PAYLOAD,2022-09-12 14:00:01,15.08810854,0.0001473,53.2183,328.8048,52.4708,233.3876,0.002498,0.0003966,0.0,0 STARLINK-3508,1 51862U 22022L   22255.58334491  .00039660  00000-0  24980-2 0  9992,2 51862  53.2183 328.8048 0001473  52.4708 233.3876 15.08810854  1306,6917.969,95.439,540.8530000000002,538.815,0.0
